KUIPER-00089            
1 64834U 25151U   25289.16670139 -.00086847  00000+0 -55397-2 0  9993
2 64834  51.8898 206.8410 0003416 123.0153 219.2336 15.08576573  5149
KUIPER-00090            
1 64835U 25151V   25289.16670139  .00026673  00000+0  10382-2 0  9998
2 64835  51.8821 204.6465 0007343 142.2745 150.6950 15.25796317  4389
KUIPER-00091            
1 64836U 25151W   25289.16670139  .00059152  00000+0  31868-2 0  9999
2 64836  51.8808 205.8522 0008647 137.2779 251.3087 15.14210315  4209
KUIPER-00092            
1 64837U 25151X   25289.16670139 -.00917238  00000+0 -95002-1 0  9999
2 64837  51.8929 210.0507 0007556 119.8541  85.2975 14.92330748  2190
KUIPER-00093            
1 64838U 25151Y   25289.16670139 -.00023984  00000+0 -28414-2 0  9990
2 64838  51.8973 212.2423 0015247 126.3101 275.0781 14.83828084  1864
KUIPER-00094            
1 64839U 25151Z   25289.16670139  .00045983  00000+0  28399-2 0  9994
2 64839  51.8863 206.9505 0007460 130.7297  63.3970 15.09413882  4795
KUIPER-00081            
1 65132U 25171A   25289.14693336  .00037521  00000+0  10028-2 0  9994
2 65132  51.8731  87.7810 0004726 359.5062   0.5919 15.37706213 11342
KUIPER-00088            
1 65133U 25171B   25289.16670139 -.00691975  00000+0 -34920-1 0  9990
2 65133  51.8869  89.0167 0006721 348.7065 195.1113 15.18955554  5214
